[
    {
        "Altitude(m)": 559659.221932623,
        "Argument of Periapsis(deg)": 0.026491964442854003,
        "Eccentricity": 0.0,
        "Inclination(deg)": 53.0,
        "Latitude(deg)": 52.09666940072535,
        "Longitude(deg)": 46.08973075200212,
        "Mean Anomaly(deg)": 80.36647147031036,
        "RAAN(deg)": 74.96057347411208,
        "Satellite Name": "Starlink Shell 1 332",
        "Satellite Number": 332,
        "Semi-Major Axis(m)": 6931778.249405717,
        "Time(s)": 760
    },
    {
        "Altitude(m)": 559689.2869876499,
        "Argument of Periapsis(deg)": 0.02684054292236524,
        "Eccentricity": 0.0,
        "Inclination(deg)": 53.0,
        "Latitude(deg)": 52.228205431313945,
        "Longitude(deg)": 47.04485088142187,
        "Mean Anomaly(deg)": 80.99330267386706,
        "RAAN(deg)": 74.9600547040346,
        "Satellite Name": "Starlink Shell 1 332",
        "Satellite Number": 332,
        "Semi-Major Axis(m)": 6931778.249405717,
        "Time(s)": 770
    },
    {
        "Altitude(m)": 559717.4092665153,
        "Argument of Periapsis(deg)": 0.027189121401876473,
        "Eccentricity": 0.0,
        "Inclination(deg)": 53.0,
        "Latitude(deg)": 52.35128284812767,
        "Longitude(deg)": 48.005682278321885,
        "Mean Anomaly(deg)": 81.62013387742377,
        "RAAN(deg)": 74.95953593395711,
        "Satellite Name": "Starlink Shell 1 332",
        "Satellite Number": 332,
        "Semi-Major Axis(m)": 6931778.249405717,
        "Time(s)": 780
    },
    {
        "Altitude(m)": 559743.5718783529,
        "Argument of Periapsis(deg)": 0.02753769988138771,
        "Eccentricity": 0.0,
        "Inclination(deg)": 53.0,
        "Latitude(deg)": 52.46581754123772,
        "Longitude(deg)": 48.97189743222792,
        "Mean Anomaly(deg)": 82.24696508098049,
        "RAAN(deg)": 74.95901716387966,
        "Satellite Name": "Starlink Shell 1 332",
        "Satellite Number": 332,
        "Semi-Major Axis(m)": 6931778.249405717,
        "Time(s)": 790
    },
    {
        "Altitude(m)": 559767.7591199054,
        "Argument of Periapsis(deg)": 0.02788627836089895,
        "Eccentricity": 0.0,
        "Inclination(deg)": 53.0,
        "Latitude(deg)": 52.57173025278934,
        "Longitude(deg)": 49.943154065820856,
        "Mean Anomaly(deg)": 82.8737962845372,
        "RAAN(deg)": 74.95849839380217,
        "Satellite Name": "Starlink Shell 1 332",
        "Satellite Number": 332,
        "Semi-Major Axis(m)": 6931778.249405717,
        "Time(s)": 800
    },
    {
        "Altitude(m)": 559789.9564831994,
        "Argument of Periapsis(deg)": 0.02823485684041019,
        "Eccentricity": 0.0,
        "Inclination(deg)": 53.0,
        "Latitude(deg)": 52.66894683251551,
        "Longitude(deg)": 50.91909629544862,
        "Mean Anomaly(deg)": 83.50062748809394,
        "RAAN(deg)": 74.9579796237247,
        "Satellite Name": "Starlink Shell 1 332",
        "Satellite Number": 332,
        "Semi-Major Axis(m)": 6931778.249405717,
        "Time(s)": 810
    },
    {
        "Altitude(m)": 559810.1506626061,
        "Argument of Periapsis(deg)": 0.028583435319921423,
        "Eccentricity": 0.0,
        "Inclination(deg)": 53.0,
        "Latitude(deg)": 52.75739848165412,
        "Longitude(deg)": 51.899355876429,
        "Mean Anomaly(deg)": 84.12745869165063,
        "RAAN(deg)": 74.95746085364723,
        "Satellite Name": "Starlink Shell 1 332",
        "Satellite Number": 332,
        "Semi-Major Axis(m)": 6931778.249405717,
        "Time(s)": 820
    },
    {
        "Altitude(m)": 559828.3295613339,
        "Argument of Periapsis(deg)": 0.028932013799432665,
        "Eccentricity": 0.0,
        "Inclination(deg)": 53.0,
        "Latitude(deg)": 52.83702198355821,
        "Longitude(deg)": 52.883552018447205,
        "Mean Anomaly(deg)": 84.75428989520736,
        "RAAN(deg)": 74.95694208356976,
        "Satellite Name": "Starlink Shell 1 332",
        "Satellite Number": 332,
        "Semi-Major Axis(m)": 6931778.249405717,
        "Time(s)": 830
    },
    {
        "Altitude(m)": 559844.482297318,
        "Argument of Periapsis(deg)": 0.029280592278943897,
        "Eccentricity": 0.0,
        "Inclination(deg)": 53.0,
        "Latitude(deg)": 52.90775991925149,
        "Longitude(deg)": 53.87129279328551,
        "Mean Anomaly(deg)": 85.38112109876407,
        "RAAN(deg)": 74.95642331349228,
        "Satellite Name": "Starlink Shell 1 332",
        "Satellite Number": 332,
        "Semi-Major Axis(m)": 6931778.249405717,
        "Time(s)": 840
    },
    {
        "Altitude(m)": 559858.5992085154,
        "Argument of Periapsis(deg)": 0.029629170758455132,
        "Eccentricity": 0.0,
        "Inclination(deg)": 53.0,
        "Latitude(deg)": 52.969560866262,
        "Longitude(deg)": 54.86217661767468,
        "Mean Anomaly(deg)": 86.00795230232077,
        "RAAN(deg)": 74.95590454341482,
        "Satellite Name": "Starlink Shell 1 332",
        "Satellite Number": 332,
        "Semi-Major Axis(m)": 6931778.249405717,
        "Time(s)": 850
    },
    {
        "Altitude(m)": 559870.6718576197,
        "Argument of Periapsis(deg)": 0.02997774923796637,
        "Eccentricity": 0.0,
        "Inclination(deg)": 53.0,
        "Latitude(deg)": 53.02237957916001,
        "Longitude(deg)": 55.85579212503989,
        "Mean Anomaly(deg)": 86.6347835058775,
        "RAAN(deg)": 74.95538577333734,
        "Satellite Name": "Starlink Shell 1 332",
        "Satellite Number": 332,
        "Semi-Major Axis(m)": 6931778.249405717,
        "Time(s)": 860
    },
    {
        "Altitude(m)": 559880.6930361631,
        "Argument of Periapsis(deg)": 0.030326327717477602,
        "Eccentricity": 0.0,
        "Inclination(deg)": 53.0,
        "Latitude(deg)": 53.06617715035007,
        "Longitude(deg)": 56.851720622447544,
        "Mean Anomaly(deg)": 87.26161470943421,
        "RAAN(deg)": 74.95486700325986,
        "Satellite Name": "Starlink Shell 1 332",
        "Satellite Number": 332,
        "Semi-Major Axis(m)": 6931778.249405717,
        "Time(s)": 870
    },
    {
        "Altitude(m)": 559888.6567680191,
        "Argument of Periapsis(deg)": 0.030674906196988847,
        "Eccentricity": 0.0,
        "Inclination(deg)": 53.0,
        "Latitude(deg)": 53.100921149792704,
        "Longitude(deg)": 57.84953608289069,
        "Mean Anomaly(deg)": 87.88844591299093,
        "RAAN(deg)": 74.9543482331824,
        "Satellite Name": "Starlink Shell 1 332",
        "Satellite Number": 332,
        "Semi-Major Axis(m)": 6931778.249405717,
        "Time(s)": 880
    },
    {
        "Altitude(m)": 559894.5583123134,
        "Argument of Periapsis(deg)": 0.031023484676500086,
        "Eccentricity": 0.0,
        "Inclination(deg)": 53.0,
        "Latitude(deg)": 53.126585742496864,
        "Longitude(deg)": 58.848806867662695,
        "Mean Anomaly(deg)": 88.51527711654764,
        "RAAN(deg)": 74.95382946310492,
        "Satellite Name": "Starlink Shell 1 332",
        "Satellite Number": 332,
        "Semi-Major Axis(m)": 6931778.249405717,
        "Time(s)": 890
    },
    {
        "Altitude(m)": 559898.3941657372,
        "Argument of Periapsis(deg)": 0.03137206315601132,
        "Eccentricity": 0.0,
        "Inclination(deg)": 53.0,
        "Latitude(deg)": 53.14315178279181,
        "Longitude(deg)": 59.84909748950802,
        "Mean Anomaly(deg)": 89.14210832010436,
        "RAAN(deg)": 74.95331069302745,
        "Satellite Name": "Starlink Shell 1 332",
        "Satellite Number": 332,
        "Semi-Major Axis(m)": 6931778.249405717,
        "Time(s)": 900
    },
    {
        "Altitude(m)": 559900.1620642301,
        "Argument of Periapsis(deg)": 0.03172064163552255,
        "Eccentricity": 0.0,
        "Inclination(deg)": 53.0,
        "Latitude(deg)": 53.1506068845731,
        "Longitude(deg)": 60.849968894787715,
        "Mean Anomaly(deg)": 89.7689395236611,
        "RAAN(deg)": 74.95279192294998,
        "Satellite Name": "Starlink Shell 1 332",
        "Satellite Number": 332,
        "Semi-Major Axis(m)": 6931778.249405717,
        "Time(s)": 910
    },
    {
        "Altitude(m)": 559899.8609841001,
        "Argument of Periapsis(deg)": 0.0320692201150338,
        "Eccentricity": 0.0,
        "Inclination(deg)": 53.0,
        "Latitude(deg)": 53.14894546692428,
        "Longitude(deg)": 61.8509802810923,
        "Mean Anomaly(deg)": 90.3957707272178,
        "RAAN(deg)": 74.95227315287251,
        "Satellite Name": "Starlink Shell 1 332",
        "Satellite Number": 332,
        "Semi-Major Axis(m)": 6931778.249405717,
        "Time(s)": 920
    },
    {
        "Altitude(m)": 559897.4911424991,
        "Argument of Periapsis(deg)": 0.032417798594545036,
        "Eccentricity": 0.0,
        "Inclination(deg)": 53.0,
        "Latitude(deg)": 53.138168774718565,
        "Longitude(deg)": 62.85169092779546,
        "Mean Anomaly(deg)": 91.0226019307745,
        "RAAN(deg)": 74.95175438279503,
        "Satellite Name": "Starlink Shell 1 332",
        "Satellite Number": 332,
        "Semi-Major Axis(m)": 6931778.249405717,
        "Time(s)": 930
    },
    {
        "Altitude(m)": 559893.053997328,
        "Argument of Periapsis(deg)": 0.03276637707405627,
        "Eccentricity": 0.0,
        "Inclination(deg)": 53.0,
        "Latitude(deg)": 53.118284874020745,
        "Longitude(deg)": 63.85166051686294,
        "Mean Anomaly(deg)": 91.64943313433122,
        "RAAN(deg)": 74.95123561271757,
        "Satellite Name": "Starlink Shell 1 332",
        "Satellite Number": 332,
        "Semi-Major Axis(m)": 6931778.249405717,
        "Time(s)": 940
    }
]